[{"OBJECT_NAME":"ONEWEB-0189","OBJECT_ID":"2021-031H","EPOCH":"2026-03-09T16:15:08.770176","MEAN_MOTION":13.1450256,"ECCENTRICITY":0.00020082,"INCLINATION":87.8987,"RA_OF_ASC_NODE":309.5521,"ARG_OF_PERICENTER":82.6865,"MEAN_ANOMALY":277.4493,"EPHEMERIS_TYPE":0,"CLASSIFICATION_TYPE":"U","NORAD_CAT_ID":48217,"ELEMENT_SET_NO":999,"REV_AT_EPOCH":23515,"BSTAR":2.4854517e-5,"MEAN_MOTION_DOT":2.2e-7,"MEAN_MOTION_DDOT":0},{"OBJECT_NAME":"SECOR 5 (EGRS 5)","OBJECT_ID":"1965-063A","EPOCH":"2026-03-09T14:11:53.076192","MEAN_MOTION":11.78687329,"ECCENTRICITY":0.0789564,"INCLINATION":69.2353,"RA_OF_ASC_NODE":38.7655,"ARG_OF_PERICENTER":242.462,"MEAN_ANOMALY":236.3303,"EPHEMERIS_TYPE":0,"CLASSIFICATION_TYPE":"U","NORAD_CAT_ID":1506,"ELEMENT_SET_NO":999,"REV_AT_EPOCH":60651,"BSTAR":-0.00011,"MEAN_MOTION_DOT":-5.0e-7,"MEAN_MOTION_DDOT":0}]
